[{"OBJECT_NAME":"STARLINK-2106","OBJECT_ID":"2021-005AP","EPOCH":"2026-03-09T06:36:06.039360","MEAN_MOTION":15.06415251,"ECCENTRICITY":0.00015366,"INCLINATION":53.055,"RA_OF_ASC_NODE":33.4804,"ARG_OF_PERICENTER":89.2024,"MEAN_ANOMALY":270.9142,"EPHEMERIS_TYPE":0,"CLASSIFICATION_TYPE":"U","NORAD_CAT_ID":47386,"ELEMENT_SET_NO":999,"REV_AT_EPOCH":28340,"BSTAR":0.00026827834,"MEAN_MOTION_DOT":3.718e-5,"MEAN_MOTION_DDOT":0},{"OBJECT_NAME":"FENGYUN 1C DEB","OBJECT_ID":"1999-025FA","EPOCH":"2026-03-09T12:13:03.178848","MEAN_MOTION":14.51919442,"ECCENTRICITY":0.02484504,"INCLINATION":98.681,"RA_OF_ASC_NODE":170.2285,"ARG_OF_PERICENTER":35.3689,"MEAN_ANOMALY":24.2024,"EPHEMERIS_TYPE":0,"CLASSIFICATION_TYPE":"U","NORAD_CAT_ID":29856,"ELEMENT_SET_NO":999,"REV_AT_EPOCH":97632,"BSTAR":0.0021637674,"MEAN_MOTION_DOT":0.00013045,"MEAN_MOTION_DDOT":0}]
